IRIDIUM 155             
1 43573U 18061E   22119.52965716  .00000302  00000+0  10064-3 0  9992
2 43573  86.3949 327.6035 0001787  89.7068 270.4332 14.34221494196977
IRIDIUM 154             
1 43574U 18061F   22119.09201442  .00000281  00000+0  93292-4 0  9995
2 43574  86.3953 327.8478 0002306  82.4806 277.6651 14.34220329196962
IRIDIUM 163             
1 43575U 18061G   22119.56137216  .00000299  00000+0  99762-4 0  9992
2 43575  86.3950 327.6134 0002462  94.6511 265.4966 14.34217981197008
IRIDIUM 156             
1 43576U 18061H   22119.53601706  .00000301  00000+0  10055-3 0  9991
2 43576  86.3952 327.6291 0002093  96.8984 263.2449 14.34217868196996
IRIDIUM 164             
1 43577U 18061J   22119.51697857  .00000304  00000+0  10151-3 0  9992
2 43577  86.3952 327.6543 0002355  85.1768 274.9696 14.34218077197031
IRIDIUM 159             
1 43578U 18061K   22119.55503448  .00000295  00000+0  98432-4 0  9997
2 43578  86.3950 327.6071 0002268  84.2141 275.9314 14.34218814197008
IRIDIUM 180             
1 43922U 19002A   22119.48475466  .00000301  00000+0  10024-3 0  9994
2 43922  86.3947 264.4575 0002808  86.7405 273.4112 14.34219556172606
IRIDIUM 176             
1 43923U 19002B   22119.46012083  .00001105  00000+0  17147-3 0  9991
2 43923  86.6077 264.5010 0002192  93.2064 266.9404 14.72230232177128
IRIDIUM 168             
1 43924U 19002C   22119.47841181  .00000310  00000+0  10361-3 0  9990
2 43924  86.3949 264.4948 0002281  87.3210 272.8247 14.34218160172589
IRIDIUM 173             
1 43925U 19002D   22119.46574252  .00000301  00000+0  10053-3 0  9990
2 43925  86.3946 264.4505 0002327  90.5564 269.5898 14.34217535172563
IRIDIUM 169             
1 43926U 19002E   22119.54412926  .00000132  00000+0  36644-4 0  9996
2 43926  86.4176 296.0435 0002501 276.2569  83.8344 14.38601250173182
IRIDIUM 172             
1 43927U 19002F   22119.45938264  .00000301  00000+0  10048-3 0  9992
2 43927  86.3947 264.4566 0002385  88.7686 271.3782 14.34219355172577
IRIDIUM 175             
1 43928U 19002G   22119.45395929  .00001118  00000+0  17345-3 0  9992
2 43928  86.6072 264.3324 0002705  91.5675 268.5852 14.72242041177118
IRIDIUM 171             
1 43929U 19002H   22119.44035774  .00000303  00000+0  10103-3 0  9991
2 43929  86.3955 264.6033 0002258  87.4163 272.7291 14.34219232172567
IRIDIUM 170             
1 43930U 19002J   22119.46632981  .00001098  00000+0  17027-3 0  9992
2 43930  86.6079 264.5042 0002620  95.5847 264.5669 14.72226633177131
IRIDIUM 167             
1 43931U 19002K   22119.50378046  .00000301  00000+0  10056-3 0  9998
2 43931  86.3946 264.4470 0002537  86.4892 273.6594 14.34218870172575
